[{"OBJECT_NAME":"TDRS 11","OBJECT_ID":"2013-004A","EPOCH":"2026-03-05T08:07:07.730688","MEAN_MOTION":1.00276897,"ECCENTRICITY":0.00039782,"INCLINATION":3.3687,"RA_OF_ASC_NODE":29.3698,"ARG_OF_PERICENTER":350.9424,"MEAN_ANOMALY":90.211,"EPHEMERIS_TYPE":0,"CLASSIFICATION_TYPE":"U","NORAD_CAT_ID":39070,"ELEMENT_SET_NO":999,"REV_AT_EPOCH":4565,"BSTAR":0,"MEAN_MOTION_DOT":7.4e-7,"MEAN_MOTION_DDOT":0},{"OBJECT_NAME":"TDRS 12","OBJECT_ID":"2014-004A","EPOCH":"2026-03-05T08:12:23.043168","MEAN_MOTION":1.00269751,"ECCENTRICITY":0.00039084,"INCLINATION":3.8768,"RA_OF_ASC_NODE":17.2574,"ARG_OF_PERICENTER":267.7803,"MEAN_ANOMALY":320.2316,"EPHEMERIS_TYPE":0,"CLASSIFICATION_TYPE":"U","NORAD_CAT_ID":39504,"ELEMENT_SET_NO":999,"REV_AT_EPOCH":4323,"BSTAR":0,"MEAN_MOTION_DOT":-2.76e-6,"MEAN_MOTION_DDOT":0},{"OBJECT_NAME":"GPM-CORE","OBJECT_ID":"2014-009C","EPOCH":"2026-03-05T04:16:32.277504","MEAN_MOTION":15.44629123,"ECCENTRICITY":0.00124138,"INCLINATION":64.9731,"RA_OF_ASC_NODE":296.5999,"ARG_OF_PERICENTER":264.8625,"MEAN_ANOMALY":95.1099,"EPHEMERIS_TYPE":0,"CLASSIFICATION_TYPE":"U","NORAD_CAT_ID":39574,"ELEMENT_SET_NO":999,"REV_AT_EPOCH":68174,"BSTAR":0.00024353463,"MEAN_MOTION_DOT":0.00011195,"MEAN_MOTION_DDOT":0},{"OBJECT_NAME":"MMS 1","OBJECT_ID":"2015-011A","EPOCH":"2026-03-05T08:00:01.999872","MEAN_MOTION":0.28330875,"ECCENTRICITY":0.8414109,"INCLINATION":70.7423,"RA_OF_ASC_NODE":350.2191,"ARG_OF_PERICENTER":165.2307,"MEAN_ANOMALY":145.4857,"EPHEMERIS_TYPE":0,"CLASSIFICATION_TYPE":"U","NORAD_CAT_ID":40482,"ELEMENT_SET_NO":999,"REV_AT_EPOCH":133,"BSTAR":0,"MEAN_MOTION_DOT":-1.903e-5,"MEAN_MOTION_DDOT":0},{"OBJECT_NAME":"MMS 2","OBJECT_ID":"2015-011B","EPOCH":"2026-03-05T08:00:01.999872","MEAN_MOTION":0.28330881,"ECCENTRICITY":0.84148384,"INCLINATION":70.7425,"RA_OF_ASC_NODE":350.2212,"ARG_OF_PERICENTER":165.2368,"MEAN_ANOMALY":145.4692,"EPHEMERIS_TYPE":0,"CLASSIFICATION_TYPE":"U","NORAD_CAT_ID":40483,"ELEMENT_SET_NO":999,"REV_AT_EPOCH":133,"BSTAR":0,"MEAN_MOTION_DOT":-1.903e-5,"MEAN_MOTION_DDOT":0},{"OBJECT_NAME":"MMS 3","OBJECT_ID":"2015-011C","EPOCH":"2026-03-05T08:00:01.999872","MEAN_MOTION":0.28330849,"ECCENTRICITY":0.84141234,"INCLINATION":70.7449,"RA_OF_ASC_NODE":350.2259,"ARG_OF_PERICENTER":165.2309,"MEAN_ANOMALY":145.4778,"EPHEMERIS_TYPE":0,"CLASSIFICATION_TYPE":"U","NORAD_CAT_ID":40484,"ELEMENT_SET_NO":999,"REV_AT_EPOCH":133,"BSTAR":0,"MEAN_MOTION_DOT":-1.903e-5,"MEAN_MOTION_DDOT":0},{"OBJECT_NAME":"MMS 4","OBJECT_ID":"2015-011D","EPOCH":"2026-03-05T08:00:01.999872","MEAN_MOTION":0.28330846,"ECCENTRICITY":0.84136246,"INCLINATION":70.743,"RA_OF_ASC_NODE":350.221,"ARG_OF_PERICENTER":165.2382,"MEAN_ANOMALY":145.4635,"EPHEMERIS_TYPE":0,"CLASSIFICATION_TYPE":"U","NORAD_CAT_ID":40485,"ELEMENT_SET_NO":999,"REV_AT_EPOCH":133,"BSTAR":0,"MEAN_MOTION_DOT":-1.903e-5,"MEAN_MOTION_DDOT":0},{"OBJECT_NAME":"TDRS 13","OBJECT_ID":"2017-047A","EPOCH":"2026-03-05T05:23:07.334016","MEAN_MOTION":1.00272273,"ECCENTRICITY":0.00103193,"INCLINATION":3.4297,"RA_OF_ASC_NODE":0.0855,"ARG_OF_PERICENTER":98.9678,"MEAN_ANOMALY":133.2126,"EPHEMERIS_TYPE":0,"CLASSIFICATION_TYPE":"U","NORAD_CAT_ID":42915,"ELEMENT_SET_NO":999,"REV_AT_EPOCH":3130,"BSTAR":0,"MEAN_MOTION_DOT":-1.07e-6,"MEAN_MOTION_DDOT":0},{"OBJECT_NAME":"NOAA 20 (JPSS-1)","OBJECT_ID":"2017-073A","EPOCH":"2026-03-05T05:55:28.354944","MEAN_MOTION":14.19534754,"ECCENTRICITY":0.00010111,"INCLINATION":98.7688,"RA_OF_ASC_NODE":4.6783,"ARG_OF_PERICENTER":143.4453,"MEAN_ANOMALY":216.6792,"EPHEMERIS_TYPE":0,"CLASSIFICATION_TYPE":"U","NORAD_CAT_ID":43013,"ELEMENT_SET_NO":999,"REV_AT_EPOCH":42972,"BSTAR":7.6800451e-5,"MEAN_MOTION_DOT":1.18e-6,"MEAN_MOTION_DDOT":0}]
